[{"OBJECT_NAME":"STARLINK-5003","OBJECT_ID":"2022-119V","EPOCH":"2026-03-02T02:01:56.426304","MEAN_MOTION":15.08840582,"ECCENTRICITY":0.0001414,"INCLINATION":53.2198,"RA_OF_ASC_NODE":348.4812,"ARG_OF_PERICENTER":91.269,"MEAN_ANOMALY":268.8465,"EPHEMERIS_TYPE":0,"CLASSIFICATION_TYPE":"U","NORAD_CAT_ID":53905,"ELEMENT_SET_NO":999,"REV_AT_EPOCH":19067,"BSTAR":9.0473e-5,"MEAN_MOTION_DOT":1.152e-5,"MEAN_MOTION_DDOT":0},{"OBJECT_NAME":"STARLINK-5054","OBJECT_ID":"2022-119W","EPOCH":"2026-03-02T04:03:44.547840","MEAN_MOTION":15.08838469,"ECCENTRICITY":0.0001357,"INCLINATION":53.2199,"RA_OF_ASC_NODE":347.6,"ARG_OF_PERICENTER":96.1918,"MEAN_ANOMALY":263.9229,"EPHEMERIS_TYPE":0,"CLASSIFICATION_TYPE":"U","NORAD_CAT_ID":53906,"ELEMENT_SET_NO":999,"REV_AT_EPOCH":19069,"BSTAR":5.4596e-5,"MEAN_MOTION_DOT":5.81e-6,"MEAN_MOTION_DDOT":0},{"OBJECT_NAME":"STARLINK-5057","OBJECT_ID":"2022-119Y","EPOCH":"2026-03-02T01:51:19.672128","MEAN_MOTION":15.08842118,"ECCENTRICITY":0.0001138,"INCLINATION":53.2198,"RA_OF_ASC_NODE":348.4333,"ARG_OF_PERICENTER":95.4405,"MEAN_ANOMALY":264.6717,"EPHEMERIS_TYPE":0,"CLASSIFICATION_TYPE":"U","NORAD_CAT_ID":53908,"ELEMENT_SET_NO":999,"REV_AT_EPOCH":19067,"BSTAR":8.3525e-5,"MEAN_MOTION_DOT":1.042e-5,"MEAN_MOTION_DDOT":0},{"OBJECT_NAME":"STARLINK-4796","OBJECT_ID":"2022-119Z","EPOCH":"2026-03-02T03:42:37.971360","MEAN_MOTION":15.08841528,"ECCENTRICITY":0.000136,"INCLINATION":53.2196,"RA_OF_ASC_NODE":348.2079,"ARG_OF_PERICENTER":90.9959,"MEAN_ANOMALY":269.1189,"EPHEMERIS_TYPE":0,"CLASSIFICATION_TYPE":"U","NORAD_CAT_ID":53909,"ELEMENT_SET_NO":999,"REV_AT_EPOCH":19068,"BSTAR":0.00011754,"MEAN_MOTION_DOT":1.583e-5,"MEAN_MOTION_DDOT":0},{"OBJECT_NAME":"STARLINK-5048","OBJECT_ID":"2022-119AB","EPOCH":"2026-03-02T03:31:59.198016","MEAN_MOTION":15.08858752,"ECCENTRICITY":9.16e-5,"INCLINATION":53.2191,"RA_OF_ASC_NODE":348.1601,"ARG_OF_PERICENTER":98.2606,"MEAN_ANOMALY":261.849,"EPHEMERIS_TYPE":0,"CLASSIFICATION_TYPE":"U","NORAD_CAT_ID":53911,"ELEMENT_SET_NO":999,"REV_AT_EPOCH":19068,"BSTAR":0.00035877,"MEAN_MOTION_DOT":5.43e-5,"MEAN_MOTION_DDOT":0},{"OBJECT_NAME":"STARLINK-5059","OBJECT_ID":"2022-119AC","EPOCH":"2026-03-02T02:17:44.979072","MEAN_MOTION":15.08820271,"ECCENTRICITY":0.0001445,"INCLINATION":53.2199,"RA_OF_ASC_NODE":347.8535,"ARG_OF_PERICENTER":100.5369,"MEAN_ANOMALY":259.5786,"EPHEMERIS_TYPE":0,"CLASSIFICATION_TYPE":"U","NORAD_CAT_ID":53912,"ELEMENT_SET_NO":999,"REV_AT_EPOCH":19068,"BSTAR":0.00024333,"MEAN_MOTION_DOT":3.585e-5,"MEAN_MOTION_DDOT":0},{"OBJECT_NAME":"STARLINK-5053","OBJECT_ID":"2022-119AD","EPOCH":"2026-03-02T01:30:06.672672","MEAN_MOTION":15.08830531,"ECCENTRICITY":0.0001375,"INCLINATION":53.2196,"RA_OF_ASC_NODE":348.3442,"ARG_OF_PERICENTER":87.2719,"MEAN_ANOMALY":272.8431,"EPHEMERIS_TYPE":0,"CLASSIFICATION_TYPE":"U","NORAD_CAT_ID":53913,"ELEMENT_SET_NO":999,"REV_AT_EPOCH":19067,"BSTAR":-3.8826e-5,"MEAN_MOTION_DOT":-9.06e-6,"MEAN_MOTION_DDOT":0},{"OBJECT_NAME":"STARLINK-5040","OBJECT_ID":"2022-119AE","EPOCH":"2026-03-02T01:24:48.273120","MEAN_MOTION":15.08838193,"ECCENTRICITY":0.000138,"INCLINATION":53.2187,"RA_OF_ASC_NODE":348.3283,"ARG_OF_PERICENTER":87.363,"MEAN_ANOMALY":272.752,"EPHEMERIS_TYPE":0,"CLASSIFICATION_TYPE":"U","NORAD_CAT_ID":53914,"ELEMENT_SET_NO":999,"REV_AT_EPOCH":19067,"BSTAR":8.8713e-5,"MEAN_MOTION_DOT":1.124e-5,"MEAN_MOTION_DDOT":0},{"OBJECT_NAME":"STARLINK-5017","OBJECT_ID":"2022-119AF","EPOCH":"2026-03-02T01:46:02.014752","MEAN_MOTION":15.08833001,"ECCENTRICITY":0.0001575,"INCLINATION":53.2195,"RA_OF_ASC_NODE":348.4107,"ARG_OF_PERICENTER":92.2138,"MEAN_ANOMALY":267.9034,"EPHEMERIS_TYPE":0,"CLASSIFICATION_TYPE":"U","NORAD_CAT_ID":53915,"ELEMENT_SET_NO":999,"REV_AT_EPOCH":19067,"BSTAR":4.4586e-5,"MEAN_MOTION_DOT":4.22e-6,"MEAN_MOTION_DDOT":0},{"OBJECT_NAME":"STARLINK-5051","OBJECT_ID":"2022-119AG","EPOCH":"2026-03-02T03:45:10.939968","MEAN_MOTION":15.08837641,"ECCENTRICITY":0.0001449,"INCLINATION":53.2186,"RA_OF_ASC_NODE":327.5932,"ARG_OF_PERICENTER":90.6565,"MEAN_ANOMALY":269.4593,"EPHEMERIS_TYPE":0,"CLASSIFICATION_TYPE":"U","NORAD_CAT_ID":53916,"ELEMENT_SET_NO":999,"REV_AT_EPOCH":19098,"BSTAR":4.3157e-5,"MEAN_MOTION_DOT":3.99e-6,"MEAN_MOTION_DDOT":0},{"OBJECT_NAME":"STARLINK-5036","OBJECT_ID":"2022-119AH","EPOCH":"2026-03-02T01:35:24.954720","MEAN_MOTION":15.08829486,"ECCENTRICITY":0.0001242,"INCLINATION":53.2192,"RA_OF_ASC_NODE":348.3668,"ARG_OF_PERICENTER":94.2049,"MEAN_ANOMALY":265.9086,"EPHEMERIS_TYPE":0,"CLASSIFICATION_TYPE":"U","NORAD_CAT_ID":53917,"ELEMENT_SET_NO":999,"REV_AT_EPOCH":19067,"BSTAR":1.465e-5,"MEAN_MOTION_DOT":-5.5e-7,"MEAN_MOTION_DDOT":0},{"OBJECT_NAME":"STARLINK-5012","OBJECT_ID":"2022-119AJ","EPOCH":"2026-03-02T01:19:29.737920","MEAN_MOTION":15.08841075,"ECCENTRICITY":0.0001407,"INCLINATION":53.2184,"RA_OF_ASC_NODE":348.3014,"ARG_OF_PERICENTER":88.6059,"MEAN_ANOMALY":271.5095,"EPHEMERIS_TYPE":0,"CLASSIFICATION_TYPE":"U","NORAD_CAT_ID":53918,"ELEMENT_SET_NO":999,"REV_AT_EPOCH":19067,"BSTAR":5.9305e-5,"MEAN_MOTION_DOT":6.56e-6,"MEAN_MOTION_DDOT":0},{"OBJECT_NAME":"STARLINK-5023","OBJECT_ID":"2022-119AK","EPOCH":"2026-03-02T02:49:34.520160","MEAN_MOTION":15.08845124,"ECCENTRICITY":0.0001526,"INCLINATION":53.2192,"RA_OF_ASC_NODE":347.983,"ARG_OF_PERICENTER":89.1816,"MEAN_ANOMALY":270.9351,"EPHEMERIS_TYPE":0,"CLASSIFICATION_TYPE":"U","NORAD_CAT_ID":53919,"ELEMENT_SET_NO":999,"REV_AT_EPOCH":19068,"BSTAR":-6.4317e-5,"MEAN_MOTION_DOT":-1.312e-5,"MEAN_MOTION_DDOT":0},{"OBJECT_NAME":"STARLINK-5025","OBJECT_ID":"2022-119AL","EPOCH":"2026-03-02T01:42:06.018336","MEAN_MOTION":15.08837116,"ECCENTRICITY":0.0001415,"INCLINATION":53.2189,"RA_OF_ASC_NODE":348.3893,"ARG_OF_PERICENTER":89.9631,"MEAN_ANOMALY":270.1523,"EPHEMERIS_TYPE":0,"CLASSIFICATION_TYPE":"U","NORAD_CAT_ID":53920,"ELEMENT_SET_NO":999,"REV_AT_EPOCH":19067,"BSTAR":2.4158e-5,"MEAN_MOTION_DOT":9.7e-7,"MEAN_MOTION_DDOT":0},{"OBJECT_NAME":"STARLINK-5002","OBJECT_ID":"2022-119AN","EPOCH":"2026-03-02T04:09:03.379392","MEAN_MOTION":15.08830147,"ECCENTRICITY":0.0001304,"INCLINATION":53.2194,"RA_OF_ASC_NODE":347.6153,"ARG_OF_PERICENTER":81.6137,"MEAN_ANOMALY":278.5003,"EPHEMERIS_TYPE":0,"CLASSIFICATION_TYPE":"U","NORAD_CAT_ID":53922,"ELEMENT_SET_NO":999,"REV_AT_EPOCH":19069,"BSTAR":6.1396e-5,"MEAN_MOTION_DOT":6.89e-6,"MEAN_MOTION_DDOT":0},{"OBJECT_NAME":"STARLINK-5004","OBJECT_ID":"2022-119AP","EPOCH":"2026-03-02T01:08:53.360448","MEAN_MOTION":15.08839566,"ECCENTRICITY":0.0001282,"INCLINATION":53.2189,"RA_OF_ASC_NODE":348.2553,"ARG_OF_PERICENTER":90.2929,"MEAN_ANOMALY":269.821,"EPHEMERIS_TYPE":0,"CLASSIFICATION_TYPE":"U","NORAD_CAT_ID":53923,"ELEMENT_SET_NO":999,"REV_AT_EPOCH":19067,"BSTAR":0.00016421,"MEAN_MOTION_DOT":2.327e-5,"MEAN_MOTION_DDOT":0},{"OBJECT_NAME":"STARLINK-5001","OBJECT_ID":"2022-119AQ","EPOCH":"2026-03-02T01:17:32.476704","MEAN_MOTION":15.08821986,"ECCENTRICITY":0.0001258,"INCLINATION":53.2183,"RA_OF_ASC_NODE":343.3054,"ARG_OF_PERICENTER":89.118,"MEAN_ANOMALY":270.9956,"EPHEMERIS_TYPE":0,"CLASSIFICATION_TYPE":"U","NORAD_CAT_ID":53924,"ELEMENT_SET_NO":999,"REV_AT_EPOCH":19074,"BSTAR":-9.2816e-5,"MEAN_MOTION_DOT":-1.764e-5,"MEAN_MOTION_DDOT":0},{"OBJECT_NAME":"STARLINK-5011","OBJECT_ID":"2022-119AR","EPOCH":"2026-03-02T02:12:26.253792","MEAN_MOTION":15.08836791,"ECCENTRICITY":0.0001389,"INCLINATION":53.2194,"RA_OF_ASC_NODE":347.8292,"ARG_OF_PERICENTER":83.1305,"MEAN_ANOMALY":276.9845,"EPHEMERIS_TYPE":0,"CLASSIFICATION_TYPE":"U","NORAD_CAT_ID":53925,"ELEMENT_SET_NO":999,"REV_AT_EPOCH":19068,"BSTAR":8.3736e-5,"MEAN_MOTION_DOT":1.045e-5,"MEAN_MOTION_DDOT":0},{"OBJECT_NAME":"STARLINK-5014","OBJECT_ID":"2022-119AS","EPOCH":"2026-03-02T01:01:35.500800","MEAN_MOTION":15.08838314,"ECCENTRICITY":0.0001235,"INCLINATION":53.2184,"RA_OF_ASC_NODE":343.2341,"ARG_OF_PERICENTER":92.223,"MEAN_ANOMALY":267.8903,"EPHEMERIS_TYPE":0,"CLASSIFICATION_TYPE":"U","NORAD_CAT_ID":53926,"ELEMENT_SET_NO":999,"REV_AT_EPOCH":19075,"BSTAR":0.00010257,"MEAN_MOTION_DOT":1.345e-5,"MEAN_MOTION_DDOT":0},{"OBJECT_NAME":"STARLINK-5009","OBJECT_ID":"2022-119AU","EPOCH":"2026-03-02T02:50:54.313152","MEAN_MOTION":15.08840868,"ECCENTRICITY":0.0001363,"INCLINATION":53.2182,"RA_OF_ASC_NODE":338.0054,"ARG_OF_PERICENTER":93.1068,"MEAN_ANOMALY":267.008,"EPHEMERIS_TYPE":0,"CLASSIFICATION_TYPE":"U","NORAD_CAT_ID":53928,"ELEMENT_SET_NO":999,"REV_AT_EPOCH":19082,"BSTAR":3.575e-5,"MEAN_MOTION_DOT":2.81e-6,"MEAN_MOTION_DDOT":0},{"OBJECT_NAME":"STARLINK-5018","OBJECT_ID":"2022-119AV","EPOCH":"2026-03-02T03:59:56.877792","MEAN_MOTION":15.08830212,"ECCENTRICITY":0.0001227,"INCLINATION":53.2192,"RA_OF_ASC_NODE":348.2661,"ARG_OF_PERICENTER":79.9456,"MEAN_ANOMALY":280.1675,"EPHEMERIS_TYPE":0,"CLASSIFICATION_TYPE":"U","NORAD_CAT_ID":53929,"ELEMENT_SET_NO":999,"REV_AT_EPOCH":19068,"BSTAR":-1.907e-5,"MEAN_MOTION_DOT":-5.91e-6,"MEAN_MOTION_DDOT":0},{"OBJECT_NAME":"STARLINK-5010","OBJECT_ID":"2022-119AW","EPOCH":"2026-03-02T04:05:03.949440","MEAN_MOTION":15.08842235,"ECCENTRICITY":0.0001701,"INCLINATION":53.2191,"RA_OF_ASC_NODE":337.617,"ARG_OF_PERICENTER":91.5103,"MEAN_ANOMALY":268.6083,"EPHEMERIS_TYPE":0,"CLASSIFICATION_TYPE":"U","NORAD_CAT_ID":53930,"ELEMENT_SET_NO":999,"REV_AT_EPOCH":19083,"BSTAR":6.9512e-5,"MEAN_MOTION_DOT":8.18e-6,"MEAN_MOTION_DDOT":0},{"OBJECT_NAME":"STARLINK-4772","OBJECT_ID":"2022-119AY","EPOCH":"2026-03-02T03:15:27.339840","MEAN_MOTION":15.08839505,"ECCENTRICITY":0.0001377,"INCLINATION":53.2191,"RA_OF_ASC_NODE":333.1247,"ARG_OF_PERICENTER":88.1905,"MEAN_ANOMALY":271.9245,"EPHEMERIS_TYPE":0,"CLASSIFICATION_TYPE":"U","NORAD_CAT_ID":53932,"ELEMENT_SET_NO":999,"REV_AT_EPOCH":19090,"BSTAR":9.2063e-5,"MEAN_MOTION_DOT":1.178e-5,"MEAN_MOTION_DDOT":0}]
